#aV2009  7 10  0  0   .00000000      96 DD+AD WGS84 FIT  NGA
## 1539 432000.00000000   900.00000000 55022  .0000000000000
+   31     1  2  3  4  6  7  8  9 10 11 12 13 14 15 16 17 18
+         19 20 21 22 23 24 25 26 27 28 29 30 31 32  0  0  0
+          0  0  0  0  0  0  0  0  0  0  0  0  0  0  0  0  0
+          0  0  0  0  0  0  0  0  0  0  0  0  0  0  0  0  0
+          0  0  0  0  0  0  0  0  0  0  0  0  0  0  0  0  0
++         0  0  0  0  0  0  0  0  0  0  0  0  0  0  0  0  0
++         0  0  0  0  0  0  0  0  0  0  0  0  0  0  0  0  0
++         0  0  0  0  0  0  0  0  0  0  0  0  0  0  0  0  0
++         0  0  0  0  0  0  0  0  0  0  0  0  0  0  0  0  0
++         0  0  0  0  0  0  0  0  0  0  0  0  0  0  0  0  0
%c cc cc ccc ccc cccc cccc cccc cccc ccccc ccccc ccccc ccccc
%c cc cc ccc ccc cccc cccc cccc cccc ccccc ccccc ccccc ccccc
%f  0.0000000  0.000000000  0.00000000000  0.000000000000000
%f  0.0000000  0.000000000  0.00000000000  0.000000000000000
%i    0    0    0    0      0      0      0      0         0
%i    0    0    0    0      0      0      0      0         0
/*      NGA, ST. LOUIS,MO.                                  
/*   EPHEMERIS COMPUTED FROM  3 DAYS OF DATA                
/* CCCCCCCCCCCCCCCCCCCCCCCCCCCCCCCCCCCCCCCCCCCCCCCCCCCCCCCCC
/* CCCCCCCCCCCCCCCCCCCCCCCCCCCCCCCCCCCCCCCCCCCCCCCCCCCCCCCCC
*  2009  7 10 13 30   .00000000                                                 
P  1  19024.134559 -17632.002543  -5547.981659    -67.271938                    
V  1   7303.455413  -1614.735901  30791.388555       .037661                    
P  2  13104.702593  16961.113587 -16028.967498    159.416258                    
V  2   -390.775360  20192.462507  20738.032024       .015966                    
P  3 -24805.064764  -9963.633191  -1447.235275    418.179683                    
V  3   2568.566728  -2875.102005 -30677.137403       .053068                    
P  4   6910.354889  24405.831732  -7349.848018   -168.869469                    
V  4  -2958.816964   9483.715929  29603.807900      -.164118                    
P  6 -22543.495639 -13342.809957  -4422.085399    188.180175                    
V  6   6789.666458   -927.151589 -30424.390608       .113168                    
P  7  -7668.083895  21670.806404 -13213.458144     15.496698                    
V  7  -3274.223113 -16596.068503 -25489.591748      -.007005                    
P  8   -456.788509  26260.688107   -917.769069   -211.224514                    
V  8  -2355.282551  -1106.230621 -32683.485067      -.017615                    
P  9  13966.378794  -5139.448891  21331.546433     65.743490                    
V  9   3298.361931  28455.394992   4632.939617       .020760                    
P 10  18624.663857   3841.026517 -18838.726268    -18.939832                    
V 10 -19127.721611  13669.392795 -15934.549967      -.006959                    
P 11 -14871.715168   7885.802112  20301.919256    -10.020395                    
V 11  -8260.071654 -25333.313655   4109.480872      -.015601                    
P 12  23460.201574 -11098.738278   5386.961581   -252.950172                    
V 12  -4206.116612   5924.849874  31005.172373       .061844                    
P 13  -9248.928549  11388.600097 -22272.415416    301.129660                    
V 13 -24183.538803 -13845.615273   2971.376985       .006859                    
P 14  -8165.380073 -17899.774055  18023.509366    -82.111936                    
V 14  20319.288280   9790.700353  18936.219566       .056438                    
P 15  24860.641499   6088.205023   7237.274854   -307.377864                    
V 15   7105.015035   6386.517065 -29805.360014      -.026385                    
P 16 -14225.675716  -7982.032705 -20954.255708     34.133037                    
V 16  22125.708366 -14876.221181  -9092.101059      -.035938                    
P 17   7260.815382  18067.027294  18222.749869     69.550382                    
V 17 -21058.286302  -9174.212719  17366.558852       .024459                    
P 18  13268.786579 -19178.108956  12580.997385    -41.166613                    
V 18  14954.193593  -5898.934667 -25613.715427       .031444                    
P 19 -24122.320642  -6301.699256   9585.852117     19.564539                    
V 19  -9144.516850  -8151.601364 -28292.796535      -.013671                    
P 20 -22896.437542  12835.074958   3790.585521     77.708197                    
V 20   2090.438784  -5671.159255  30856.191197      -.010039                    
P 21   6301.551757 -23297.705782 -10064.834433      3.563004                    
V 21   4465.925035  13234.787314 -27743.330812      -.021720                    
P 22   2184.249488 -18101.520587  19448.233744    195.749575                    
V 22  21550.982183 -11647.161457 -13450.619047      -.008105                    
P 23 -20334.747177   2921.427807 -17042.261212    390.102892                    
V 23 -18547.089959 -10792.518192  20046.529287      -.001228                    
P 24  13203.113556 -13312.959154 -18776.877970    203.371809                    
V 24   1855.656077  24037.187496 -15377.133746       .028679                    
P 25 -10012.375769  16236.192019 -18223.230187    501.883787                    
V 25  -5165.004901 -23218.087631 -17335.618030       .174776                    
P 26  12430.195835  -8924.103954  21254.830206     64.621546                    
V 26  24350.095357  14020.831286  -7660.352663       .002487                    
P 27  15427.725714   1794.512424  22232.943035     64.464690                    
V 27   3036.854980  26386.702616  -4377.902292       .030702                    
P 28  -4739.130659  18352.170506  18908.582939    -25.864908                    
V 28 -20408.637062  11138.809598 -16611.433967      -.001130                    
P 29  11501.813154 -10785.035584 -21262.738674     38.157955                    
V 29  23877.013247  13156.108534   6253.961378       .035014                    
P 30  18867.980100 -18097.208040  -4797.798787    159.913889                    
V 30   6340.721895   -908.408359  30848.488951       .028924                    
P 31  -7707.256089 -23650.319538  -8906.423156    -63.605394                    
V 31   1571.819756 -11759.027711  29334.719152      -.005249                    
P 32 -23782.120590   4388.696531  11062.430055    234.217484                    
V 32  10666.169590  -8714.236740  27611.638520      -.059894                    
EOF
